NORAD_CAT_ID,OBJECT_NAME,OBJECT_TYPE,EPOCH,MEAN_MOTION,ECCENTRICITY,INCLINATION,RA_OF_ASC_NODE,ARG_OF_PERICENTER,MEAN_ANOMALY,BSTAR,MEAN_MOTION_DOT,MEAN_MOTION_DDOT,TLE_LINE0,TLE_LINE1,TLE_LINE2,SEMIMAJOR_AXIS,PERIOD,APOGEE,PERIGEE,DECAYED
50172.0,STARLINK-3287,PAYLOAD,2023-04-29 18:11:51,15.08845871,0.0001593,53.2176,259.9976,105.9685,254.1483,4.0978e-05,3.64e-06,0.0,0 STARLINK-3287,1 50172U 21125S   23119.75823809  .00000364  00000-0  40978-4 0  9999,2 50172  53.2176 259.9976 0001593 105.9685 254.1483 15.08845871 78368,6917.862,95.437,540.829,538.625,0.0
50172.0,STARLINK-3287,PAYLOAD,2023-04-30 13:16:29,15.08841209,0.0001333,53.217,256.4293,96.4463,263.6681,5.6411e-05,6.1e-06,0.0,0 STARLINK-3287,1 50172U 21125S   23120.55311927  .00000610  00000-0  56411-4 0  9995,2 50172  53.2170 256.4293 0001333  96.4463 263.6681 15.08841209 79004,6917.877,95.437,540.664,538.82,0.0
50172.0,STARLINK-3287,PAYLOAD,2023-05-01 13:07:17,15.08832933,0.0001285,53.2165,251.9689,92.6492,267.4647,1.7662e-06,-2.6e-06,0.0,0 STARLINK-3287,1 50172U 21125S   23121.54672493 -.00000260  00000-0  17662-5 0  9991,2 50172  53.2165 251.9689 0001285  92.6492 267.4647 15.08832933 79157,6917.902,95.438,540.656,538.878,0.0
50172.0,STARLINK-3287,PAYLOAD,2023-05-01 14:42:40,15.08832847,0.0001251,53.2164,251.6722,82.6725,277.4409,4.2493e-06,-2.2e-06,0.0,0 STARLINK-3287,1 50172U 21125S   23121.61296549 -.00000220  00000-0  42493-5 0  9999,2 50172  53.2164 251.6722 0001251  82.6725 277.4409 15.08832847 78646,6917.902,95.438,540.633,538.902,0.0
50172.0,STARLINK-3287,PAYLOAD,2023-05-01 17:53:26,15.08841932,0.0001116,53.2167,251.0757,86.7581,273.3539,9.6579e-05,1.25e-05,0.0,0 STARLINK-3287,1 50172U 21125S   23121.74544245  .00001250  00000-0  96579-4 0  9998,2 50172  53.2167 251.0757 0001116  86.7581 273.3539 15.08841932 79180,6917.874,95.437,540.512,538.967,0.0
50172.0,STARLINK-3287,PAYLOAD,2023-05-02 12:58:03,15.08852612,0.0001027,53.2156,247.5076,83.5263,276.5846,0.00020507,2.978e-05,0.0,0 STARLINK-3287,1 50172U 21125S   23122.54031490  .00002978  00000-0  20507-3 0  9995,2 50172  53.2156 247.5076 0001027  83.5263 276.5846 15.08852612 79302,6917.842,95.437,540.417,538.996,0.0
50172.0,STARLINK-3287,PAYLOAD,2023-05-02 17:44:11,15.08873336,0.000124,53.2155,246.6156,96.7453,263.368,-7.3626e-05,-1.461e-05,0.0,0 STARLINK-3287,1 50172U 21125S   23122.73902200 -.00001461  00000-0 -73626-4 0  9991,2 50172  53.2155 246.6156 0001240  96.7453 263.3680 15.08873336 78815,6917.778,95.435,540.501,538.786,0.0
50172.0,STARLINK-3287,PAYLOAD,2023-05-03 12:48:50,15.08839029,0.0001089,53.2149,243.0464,74.8397,285.2716,7.3925e-05,8.89e-06,0.0,0 STARLINK-3287,1 50172U 21125S   23123.53392186  .00000889  00000-0  73925-4 0  9999,2 50172  53.2149 243.0464 0001089  74.8397 285.2716 15.08839029 78933,6917.883,95.438,540.502,538.995,0.0
50172.0,STARLINK-3287,PAYLOAD,2023-05-03 17:35:00,15.08843198,0.0001091,53.215,242.154,72.5764,287.5347,0.00017486,2.496e-05,0.0,0 STARLINK-3287,1 50172U 21125S   23123.73264059  .00002496  00000-0  17486-3 0  9993,2 50172  53.2150 242.1540 0001091  72.5764 287.5347 15.08843198 79484,6917.871,95.437,540.49,538.981,0.0
50172.0,STARLINK-3287,PAYLOAD,2023-05-04 12:39:37,15.08842963,0.0001086,53.2151,238.5848,75.4406,284.6707,0.00025645,3.796e-05,0.0,0 STARLINK-3287,1 50172U 21125S   23124.52752269  .00003796  00000-0  25645-3 0  9996,2 50172  53.2151 238.5848 0001086  75.4406 284.6707 15.08842963 79605,6917.871,95.437,540.488,538.985,0.0
50172.0,STARLINK-3287,PAYLOAD,2023-05-04 14:15:01,15.08846604,0.000107,53.2153,238.2874,76.5708,283.5403,0.00035583,5.381e-05,0.0,0 STARLINK-3287,1 50172U 21125S   23124.59376160  .00005381  00000-0  35583-3 0  9999,2 50172  53.2153 238.2874 0001070  76.5708 283.5403 15.08846604 79093,6917.86,95.437,540.465,538.985,0.0
50172.0,STARLINK-3287,PAYLOAD,2023-05-05 07:44:15,15.08844354,0.0001127,53.2152,235.0167,71.9063,288.2052,0.00027062,4.022e-05,0.0,0 STARLINK-3287,1 50172U 21125S   23125.32240331  .00004022  00000-0  27062-3 0  9995,2 50172  53.2152 235.0167 0001127  71.9063 288.2052 15.08844354 79203,6917.867,95.437,540.512,538.952,0.0
50172.0,STARLINK-3287,PAYLOAD,2023-05-05 12:30:24,15.08844424,0.0001089,53.2153,234.1245,73.6419,286.4693,0.00022699,3.327e-05,0.0,0 STARLINK-3287,1 50172U 21125S   23125.52112263  .00003327  00000-0  22699-3 0  9997,2 50172  53.2153 234.1245 0001089  73.6419 286.4693 15.08844424 79751,6917.867,95.437,540.485,538.979,0.0
50172.0,STARLINK-3287,PAYLOAD,2023-05-06 12:21:12,15.0884481,0.0001181,53.2156,229.6653,72.7095,287.4027,0.0001778,2.543e-05,0.0,0 STARLINK-3287,1 50172U 21125S   23126.51472308  .00002543  00000-0  17780-3 0  9990,2 50172  53.2156 229.6653 0001181  72.7095 287.4027 15.08844810 79907,6917.866,95.437,540.548,538.914,0.0
50172.0,STARLINK-3287,PAYLOAD,2023-05-06 23:28:53,15.08850197,0.0001235,53.2163,227.5831,81.0605,279.0527,0.0002469,3.645e-05,0.0,0 STARLINK-3287,1 50172U 21125S   23126.97839911  .00003645  00000-0  24690-3 0  9999,2 50172  53.2163 227.5831 0001235  81.0605 279.0527 15.08850197 79457,6917.849,95.437,540.569,538.86,0.0
50172.0,STARLINK-3287,PAYLOAD,2023-05-07 12:11:58,15.08847508,9.64e-05,53.2152,225.2047,89.0188,271.0914,0.0001342,1.849e-05,0.0,0 STARLINK-3287,1 50172U 21125S   23127.50831691  .00001849  00000-0  13420-3 0  9999,2 50172  53.2152 225.2047 0000964  89.0188 271.0914 15.08847508 80053,6917.857,95.437,540.389,539.056,0.0
50172.0,STARLINK-3287,PAYLOAD,2023-05-08 02:30:27,15.08827189,0.0001255,53.2157,222.5285,85.929,274.1846,-8.7579e-05,-1.681e-05,0.0,0 STARLINK-3287,1 50172U 21125S   23128.10448746 -.00001681  00000-0 -87579-4 0  9994,2 50172  53.2157 222.5285 0001255  85.9290 274.1846 15.08827189 79627,6917.92,95.438,540.653,538.916,0.0
50172.0,STARLINK-3287,PAYLOAD,2023-05-08 12:02:46,15.08834246,0.0001179,53.2147,220.7452,86.4794,273.6333,-9.2779e-05,-1.764e-05,0.0,0 STARLINK-3287,1 50172U 21125S   23128.50192347 -.00001764  00000-0 -92779-4 0  9991,2 50172  53.2147 220.7452 0001179  86.4794 273.6333 15.08834246 79685,6917.898,95.438,540.579,538.947,0.0
50172.0,STARLINK-3287,PAYLOAD,2023-05-08 13:38:09,15.08835587,0.0001175,53.2147,220.4478,86.4061,273.7065,-5.5984e-05,-1.179e-05,0.0,0 STARLINK-3287,1 50172U 21125S   23128.56816318 -.00001179  00000-0 -55984-4 0  9995,2 50172  53.2147 220.4478 0001175  86.4061 273.7065 15.08835587 80216,6917.894,95.438,540.572,538.946,0.0
50172.0,STARLINK-3287,PAYLOAD,2023-05-09 13:28:56,15.08847838,0.0001207,53.2144,215.9873,83.5038,276.6092,0.00049012,7.523e-05,0.0,0 STARLINK-3287,1 50172U 21125S   23129.56176484  .00007523  00000-0  49012-3 0  9990,2 50172  53.2144 215.9873 0001207  83.5038 276.6092 15.08847838 80369,6917.856,95.437,540.556,538.886,0.0
50172.0,STARLINK-3287,PAYLOAD,2023-05-10 11:44:20,15.0884059,0.0001178,53.2145,211.8223,102.1805,257.9319,0.00023091,3.389e-05,0.0,0 STARLINK-3287,1 50172U 21125S   23130.48912920  .00003389  00000-0  23091-3 0  9991,2 50172  53.2145 211.8223 0001178 102.1805 257.9319 15.08840590 80509,6917.879,95.438,540.559,538.929,0.0
50172.0,STARLINK-3287,PAYLOAD,2023-05-11 09:59:44,15.08847756,0.0001318,53.2154,207.6565,118.8059,241.3065,0.00035148,5.311e-05,0.0,0 STARLINK-3287,1 50172U 21125S   23131.41648644  .00005311  00000-0  35148-3 0  9997,2 50172  53.2154 207.6565 0001318 118.8059 241.3065 15.08847756 80643,6917.857,95.437,540.633,538.81,0.0
50172.0,STARLINK-3287,PAYLOAD,2023-05-11 11:35:07,15.0885026,0.0001336,53.2153,207.3593,120.1809,239.9316,0.00034566,5.219e-05,0.0,0 STARLINK-3287,1 50172U 21125S   23131.48272529  .00005219  00000-0  34566-3 0  9999,2 50172  53.2153 207.3593 0001336 120.1809 239.9316 15.08850260 80656,6917.849,95.437,540.638,538.79,0.0
50172.0,STARLINK-3287,PAYLOAD,2023-05-12 08:15:08,15.088373,0.0001366,53.2149,203.4973,82.7804,277.3343,9.3165e-05,1.195e-05,0.0,0 STARLINK-3287,1 50172U 21125S   23132.34385267  .00001195  00000-0  93165-4 0  9999,2 50172  53.2149 203.4973 0001366  82.7804 277.3343 15.08837300 80264,6917.889,95.438,540.699,538.809,0.0
50172.0,STARLINK-3287,PAYLOAD,2023-05-12 09:50:31,15.08841141,0.0001353,53.2146,203.1979,113.2983,246.8151,0.00013813,1.911e-05,0.0,0 STARLINK-3287,1 50172U 21125S   23132.41008947  .00001911  00000-0  13813-3 0  9991,2 50172  53.2146 203.1979 0001353 113.2983 246.8151 15.08841141 80275,6917.877,95.437,540.678,538.806,0.0
50172.0,STARLINK-3287,PAYLOAD,2023-05-13 11:16:42,15.08841849,0.0001361,53.2145,198.4415,102.3174,257.7971,0.000447,6.834e-05,0.0,0 STARLINK-3287,1 50172U 21125S   23133.46993068  .00006834  00000-0  44700-3 0  9992,2 50172  53.2145 198.4415 0001361 102.3174 257.7971 15.08841849 80439,6917.875,95.437,540.681,538.798,0.0
50172.0,STARLINK-3287,PAYLOAD,2023-05-13 20:49:00,15.08842183,0.0001214,53.2157,196.6567,85.0908,275.0222,3.2069e-05,2.23e-06,0.0,0 STARLINK-3287,1 50172U 21125S   23133.86736768  .00000223  00000-0  32069-4 0  9990,2 50172  53.2157 196.6567 0001214  85.0908 275.0222 15.08842183 81018,6917.874,95.437,540.579,538.899,0.0
50172.0,STARLINK-3287,PAYLOAD,2023-05-14 07:56:44,15.08810578,0.0001369,53.2145,194.5762,99.3861,260.7286,0.00056498,8.708e-05,0.0,0 STARLINK-3287,1 50172U 21125S   23134.33106535  .00008708  00000-0  56498-3 0  9993,2 50172  53.2145 194.5762 0001369  99.3861 260.7286 15.08810578 80569,6917.97,95.439,540.782,538.888,0.0
50172.0,STARLINK-3287,PAYLOAD,2023-05-14 12:42:52,15.08833575,0.000131,53.215,193.6832,98.9718,261.1422,-2.146e-05,-6.29e-06,0.0,0 STARLINK-3287,1 50172U 21125S   23134.52977448 -.00000629  00000-0 -21460-4 0  9991,2 50172  53.2150 193.6832 0001310  98.9718 261.1422 15.08833575 80597,6917.9,95.438,540.671,538.859,0.0
50172.0,STARLINK-3287,PAYLOAD,2023-05-14 20:39:48,15.0883406,0.0001252,53.2155,192.1968,100.3896,259.7237,4.5649e-05,4.39e-06,0.0,0 STARLINK-3287,1 50172U 21125S   23134.86097774  .00000439  00000-0  45649-4 0  9995,2 50172  53.2155 192.1968 0001252 100.3896 259.7237 15.08834060 81167,6917.899,95.438,540.63,538.897,0.0
